{
  "type": "FeatureCollection",
  "features": [
    {
      "type": "Feature",
      "properties": {
        "norad_id": 33844,
        "name": "COSMOS 2251 DEB",
        "group": "cosmos-2251-debris",
        "lat": -36.954702940668405,
        "lon": -107.79497403742391,
        "alt_km": 809.3814152234718,
        "timestamp": "2025-12-08T21:31:05.059281+00:00",
        "meta_object_name": "COSMOS 2251 DEB",
        "meta_object_id": "1993-036CM",
        "meta_epoch": "2025-12-08T14:19:00.435648",
        "meta_mean_motion": 14.33703798,
        "meta_eccentricity": 0.00470923,
        "meta_inclination": 74.0672,
        "meta_ra_of_asc_node": 60.3425,
        "meta_arg_of_pericenter": 83.6232,
        "meta_mean_anomaly": 26.5481,
        "meta_ephemeris_type": 0,
        "meta_classification_type": "U",
        "meta_norad_cat_id": 33844,
        "meta_element_set_no": 999,
        "meta_rev_at_epoch": 87666,
        "meta_bstar": 0.00072496166,
        "meta_mean_motion_dot": 2.012e-05,
        "meta_mean_motion_ddot": 0,
        "tle_line1": "1 33844U 93036CM  25342.59653282  .00002012  00000+0  72496-3 0  9994",
        "tle_line2": "2 33844  74.0672  60.3425 0047092  83.6232  26.5481 14.33703798876660"
      },
      "geometry": {
        "type": "Point",
        "coordinates": [
          -107.79497403742391,
          -36.954702940668405
        ]
      }
    },
    {
      "type": "Feature",
      "properties": {
        "norad_id": 33848,
        "name": "COSMOS 2251 DEB",
        "group": "cosmos-2251-debris",
        "lat": -67.94878697694556,
        "lon": -130.22558797804743,
        "alt_km": 780.636249454571,
        "timestamp": "2025-12-08T21:31:05.059292+00:00",
        "meta_object_name": "COSMOS 2251 DEB",
        "meta_object_id": "1993-036CR",
        "meta_epoch": "2025-12-08T12:35:16.311840",
        "meta_mean_motion": 14.440187,
        "meta_eccentricity": 0.00409837,
        "meta_inclination": 74.0319,
        "meta_ra_of_asc_node": 5.4855,
        "meta_arg_of_pericenter": 62.769,
        "meta_mean_anomaly": 58.3725,
        "meta_ephemeris_type": 0,
        "meta_classification_type": "U",
        "meta_norad_cat_id": 33848,
        "meta_element_set_no": 999,
        "meta_rev_at_epoch": 87770,
        "meta_bstar": 0.0014959518,
        "meta_mean_motion_dot": 5.145e-05,
        "meta_mean_motion_ddot": 0,
        "tle_line1": "1 33848U 93036CR  25342.52449435  .00005145  00000+0  14960-2 0  9995",
        "tle_line2": "2 33848  74.0319   5.4855 0040983  62.7690  58.3725 14.44018700877701"
      },
      "geometry": {
        "type": "Point",
        "coordinates": [
          -130.22558797804743,
          -67.94878697694556
        ]
      }
    },
    {
      "type": "Feature",
      "properties": {
        "norad_id": 33892,
        "name": "COSMOS 2251 DEB",
        "group": "cosmos-2251-debris",
        "lat": 68.43445236129075,
        "lon": -118.27178083770723,
        "alt_km": 741.4707654849635,
        "timestamp": "2025-12-08T21:31:05.059302+00:00",
        "meta_object_name": "COSMOS 2251 DEB",
        "meta_object_id": "1993-036CV",
        "meta_epoch": "2025-12-08T11:13:27.003360",
        "meta_mean_motion": 14.23311863,
        "meta_eccentricity": 0.01132179,
        "meta_inclination": 73.8032,
        "meta_ra_of_asc_node": 109.8509,
        "meta_arg_of_pericenter": 141.8944,
        "meta_mean_anomaly": 286.4122,
        "meta_ephemeris_type": 0,
        "meta_classification_type": "U",
        "meta_norad_cat_id": 33892,
        "meta_element_set_no": 999,
        "meta_rev_at_epoch": 86894,
        "meta_bstar": 0.0015664778,
        "meta_mean_motion_dot": 3.767e-05,
        "meta_mean_motion_ddot": 0,
        "tle_line1": "1 33892U 93036CV  25342.46767365  .00003767  00000+0  15665-2 0  9993",
        "tle_line2": "2 33892  73.8032 109.8509 0113217 141.8944 286.4122 14.23311863868940"
      },
      "geometry": {
        "type": "Point",
        "coordinates": [
          -118.27178083770723,
          68.43445236129075
        ]
      }
    },
    {
      "type": "Feature",
      "properties": {
        "norad_id": 33894,
        "name": "COSMOS 2251 DEB",
        "group": "cosmos-2251-debris",
        "lat": -6.575381061059461,
        "lon": -6.897389613881271,
        "alt_km": 1070.4717086006985,
        "timestamp": "2025-12-08T21:31:05.059312+00:00",
        "meta_object_name": "COSMOS 2251 DEB",
        "meta_object_id": "1993-036CX",
        "meta_epoch": "2025-12-08T10:38:58.588224",
        "meta_mean_motion": 13.21283258,
        "meta_eccentricity": 0.05795731,
        "meta_inclination": 73.7668,
        "meta_ra_of_asc_node": 355.7273,
        "meta_arg_of_pericenter": 275.6874,
        "meta_mean_anomaly": 77.844,
        "meta_ephemeris_type": 0,
        "meta_classification_type": "U",
        "meta_norad_cat_id": 33894,
        "meta_element_set_no": 999,
        "meta_rev_at_epoch": 80651,
        "meta_bstar": 0.0026326972,
        "meta_mean_motion_dot": 2.6e-05,
        "meta_mean_motion_ddot": 0,
        "tle_line1": "1 33894U 93036CX  25342.44373366  .00002600  00000+0  26327-2 0  9999",
        "tle_line2": "2 33894  73.7668 355.7273 0579573 275.6874  77.8440 13.21283258806518"
      },
      "geometry": {
        "type": "Point",
        "coordinates": [
          -6.897389613881271,
          -6.575381061059461
        ]
      }
    },
    {
      "type": "Feature",
      "properties": {
        "norad_id": 33896,
        "name": "COSMOS 2251 DEB",
        "group": "cosmos-2251-debris",
        "lat": -49.450217108287454,
        "lon": 3.5695279635900308,
        "alt_km": 861.8136333512248,
        "timestamp": "2025-12-08T21:31:05.059323+00:00",
        "meta_object_name": "COSMOS 2251 DEB",
        "meta_object_id": "1993-036CZ",
        "meta_epoch": "2025-12-08T15:41:05.467200",
        "meta_mean_motion": 14.19023147,
        "meta_eccentricity": 0.01262782,
        "meta_inclination": 73.766,
        "meta_ra_of_asc_node": 164.1012,
        "meta_arg_of_pericenter": 340.4475,
        "meta_mean_anomaly": 92.0395,
        "meta_ephemeris_type": 0,
        "meta_classification_type": "U",
        "meta_norad_cat_id": 33896,
        "meta_element_set_no": 999,
        "meta_rev_at_epoch": 86682,
        "meta_bstar": 0.00091823771,
        "meta_mean_motion_dot": 2.048e-05,
        "meta_mean_motion_ddot": 0,
        "tle_line1": "1 33896U 93036CZ  25342.65353550  .00002048  00000+0  91824-3 0  9998",
        "tle_line2": "2 33896  73.7660 164.1012 0126278 340.4475  92.0395 14.19023147866828"
      },
      "geometry": {
        "type": "Point",
        "coordinates": [
          3.5695279635900308,
          -49.450217108287454
        ]
      }
    },
    {
      "type": "Feature",
      "properties": {
        "norad_id": 33899,
        "name": "COSMOS 2251 DEB",
        "group": "cosmos-2251-debris",
        "lat": 29.185618206224728,
        "lon": 102.2551332550698,
        "alt_km": 711.5666064992438,
        "timestamp": "2025-12-08T21:31:05.059333+00:00",
        "meta_object_name": "COSMOS 2251 DEB",
        "meta_object_id": "1993-036DC",
        "meta_epoch": "2025-12-08T10:13:34.315104",
        "meta_mean_motion": 14.61119284,
        "meta_eccentricity": 0.00572227,
        "meta_inclination": 74.0543,
        "meta_ra_of_asc_node": 93.964,
        "meta_arg_of_pericenter": 157.8536,
        "meta_mean_anomaly": 279.4455,
        "meta_ephemeris_type": 0,
        "meta_classification_type": "U",
        "meta_norad_cat_id": 33899,
        "meta_element_set_no": 999,
        "meta_rev_at_epoch": 88776,
        "meta_bstar": 0.0015609411,
        "meta_mean_motion_dot": 7.835e-05,
        "meta_mean_motion_ddot": 0,
        "tle_line1": "1 33899U 93036DC  25342.42609161  .00007835  00000+0  15609-2 0  9993",
        "tle_line2": "2 33899  74.0543  93.9640 0057222 157.8536 279.4455 14.61119284887760"
      },
      "geometry": {
        "type": "Point",
        "coordinates": [
          102.2551332550698,
          29.185618206224728
        ]
      }
    },
    {
      "type": "Feature",
      "properties": {
        "norad_id": 33900,
        "name": "COSMOS 2251 DEB",
        "group": "cosmos-2251-debris",
        "lat": 68.15164093222732,
        "lon": 141.56472919775086,
        "alt_km": 672.5445556238583,
        "timestamp": "2025-12-08T21:31:05.059343+00:00",
        "meta_object_name": "COSMOS 2251 DEB",
        "meta_object_id": "1993-036DD",
        "meta_epoch": "2025-12-08T11:41:49.246656",
        "meta_mean_motion": 14.58324501,
        "meta_eccentricity": 0.00470646,
        "meta_inclination": 74.0192,
        "meta_ra_of_asc_node": 7.9651,
        "meta_arg_of_pericenter": 161.2723,
        "meta_mean_anomaly": 316.7652,
        "meta_ephemeris_type": 0,
        "meta_classification_type": "U",
        "meta_norad_cat_id": 33900,
        "meta_element_set_no": 999,
        "meta_rev_at_epoch": 88974,
        "meta_bstar": 0.00066010641,
        "meta_mean_motion_dot": 3.072e-05,
        "meta_mean_motion_ddot": 0,
        "tle_line1": "1 33900U 93036DD  25342.48737554  .00003072  00000+0  66011-3 0  9993",
        "tle_line2": "2 33900  74.0192   7.9651 0047064 161.2723 316.7652 14.58324501889740"
      },
      "geometry": {
        "type": "Point",
        "coordinates": [
          141.56472919775086,
          68.15164093222732
        ]
      }
    }
  ]
}